NORAD_CAT_ID,OBJECT_NAME,OBJECT_TYPE,EPOCH,MEAN_MOTION,ECCENTRICITY,INCLINATION,RA_OF_ASC_NODE,ARG_OF_PERICENTER,MEAN_ANOMALY,BSTAR,MEAN_MOTION_DOT,MEAN_MOTION_DDOT,TLE_LINE0,TLE_LINE1,TLE_LINE2,SEMIMAJOR_AXIS,PERIOD,APOGEE,PERIGEE,DECAYED
50814.0,STARLINK-3324,PAYLOAD,2023-07-14 06:47:27,15.08837938,9.48e-05,53.2162,200.9564,85.2916,274.8185,9.3683e-06,-1.39e-06,0.0,0 STARLINK-3324,1 50814U 22001M   23195.28296221 -.00000139  00000-0  93683-5 0  9993,2 50814  53.2162 200.9564 0000948  85.2916 274.8185 15.08837938 85333,6917.887,95.438,540.408,539.096,0.0
50814.0,STARLINK-3324,PAYLOAD,2023-07-16 00:07:29,15.0884111,9.51e-05,53.2161,193.2253,77.4726,282.6373,7.7269e-05,9.42e-06,0.0,0 STARLINK-3324,1 50814U 22001M   23197.00519944  .00000942  00000-0  77269-4 0  9997,2 50814  53.2161 193.2253 0000951  77.4726 282.6373 15.08841110 85598,6917.877,95.437,540.4,539.084,0.0
50814.0,STARLINK-3324,PAYLOAD,2023-07-16 23:58:16,15.08839632,9.94e-05,53.2163,188.765,78.0473,282.063,-1.2307e-05,-4.84e-06,0.0,0 STARLINK-3324,1 50814U 22001M   23197.99880241 -.00000484  00000-0 -12307-4 0  9991,2 50814  53.2163 188.7650 0000994  78.0473 282.0630 15.08839632 85746,6917.882,95.438,540.434,539.059,0.0
50814.0,STARLINK-3324,PAYLOAD,2023-07-18 07:45:58,15.08841984,0.0001041,53.2164,182.8182,77.7237,282.3872,2.3716e-05,9e-07,0.0,0 STARLINK-3324,1 50814U 22001M   23199.32359900  .00000090  00000-0  23716-4 0  9990,2 50814  53.2164 182.8182 0001041  77.7237 282.3872 15.08841984 85946,6917.874,95.437,540.459,539.019,0.0
50814.0,STARLINK-3324,PAYLOAD,2023-07-19 06:01:23,15.08838915,0.0001047,53.2168,178.6554,80.9156,279.1955,3.2928e-05,2.36e-06,0.0,0 STARLINK-3324,1 50814U 22001M   23200.25096179  .00000236  00000-0  32928-4 0  9998,2 50814  53.2168 178.6554 0001047  80.9156 279.1955 15.08838915 86080,6917.884,95.438,540.473,539.024,0.0
50814.0,STARLINK-3324,PAYLOAD,2023-07-20 21:46:01,15.088369,0.0001077,53.217,171.2205,89.9626,270.1489,2.6483e-05,1.34e-06,0.0,0 STARLINK-3324,1 50814U 22001M   23201.90696686  .00000134  00000-0  26483-4 0  9996,2 50814  53.2170 171.2205 0001077  89.9626 270.1489 15.08836900 86332,6917.89,95.438,540.5,539.01,0.0
50814.0,STARLINK-3324,PAYLOAD,2023-07-24 06:50:42,15.0883639,0.0001396,53.218,156.0521,105.3575,254.7571,4.3874e-06,-2.18e-06,0.0,0 STARLINK-3324,1 50814U 22001M   23205.28521117 -.00000218  00000-0  43874-5 0  9995,2 50814  53.2180 156.0521 0001396 105.3575 254.7571 15.08836390 85573,6917.891,95.438,540.722,538.791,0.0
50814.0,STARLINK-3324,PAYLOAD,2023-07-25 05:06:06,15.08838393,0.0001236,53.2178,151.8888,85.7049,274.4085,5.4444e-05,5.79e-06,0.0,0 STARLINK-3324,1 50814U 22001M   23206.21257063  .00000579  00000-0  54444-4 0  9998,2 50814  53.2178 151.8888 0001236  85.7049 274.4085 15.08838393 85719,6917.885,95.438,540.605,538.895,0.0
50814.0,STARLINK-3324,PAYLOAD,2023-07-26 01:46:07,15.08836171,0.0001005,53.2175,148.0243,82.0735,278.0371,2.7581e-05,1.51e-06,0.0,0 STARLINK-3324,1 50814U 22001M   23207.07369493  .00000151  00000-0  27581-4 0  9992,2 50814  53.2175 148.0243 0001005  82.0735 278.0371 15.08836171 85849,6917.892,95.438,540.452,539.062,0.0
50814.0,STARLINK-3324,PAYLOAD,2023-07-26 22:26:07,15.08843927,9.14e-05,53.2177,144.1661,100.2363,259.8733,7.2409e-05,8.65e-06,0.0,0 STARLINK-3324,1 50814U 22001M   23207.93480860  .00000865  00000-0  72409-4 0  9990,2 50814  53.2177 144.1661 0000914 100.2363 259.8733 15.08843927 87242,6917.868,95.437,540.366,539.101,0.0
50814.0,STARLINK-3324,PAYLOAD,2023-07-27 04:47:39,15.08852944,0.0001023,53.2175,142.9731,98.5796,261.5312,0.00013345,1.837e-05,0.0,0 STARLINK-3324,1 50814U 22001M   23208.19975958  .00001837  00000-0  13345-3 0  9999,2 50814  53.2175 142.9731 0001023  98.5796 261.5312 15.08852944 87281,6917.841,95.437,540.414,538.998,0.0
50814.0,STARLINK-3324,PAYLOAD,2023-07-27 19:06:09,15.08828421,6.02e-05,53.215,140.293,94.6983,265.4078,-9.1668e-05,-1.746e-05,0.0,0 STARLINK-3324,1 50814U 22001M   23208.79594367 -.00001746  00000-0 -91668-4 0  9992,2 50814  53.2150 140.2930 0000602  94.6983 265.4078 15.08828421 87378,6917.916,95.438,540.197,539.364,0.0
50814.0,STARLINK-3324,PAYLOAD,2023-07-28 04:38:27,15.08835166,9.12e-05,53.2168,138.5125,100.6926,259.4169,-2.8172e-05,-7.36e-06,0.0,0 STARLINK-3324,1 50814U 22001M   23209.19337901 -.00000736  00000-0 -28172-4 0  9994,2 50814  53.2168 138.5125 0000912 100.6926 259.4169 15.08835166 87437,6917.895,95.438,540.391,539.129,0.0
50814.0,STARLINK-3324,PAYLOAD,2023-07-29 01:18:28,15.08845635,0.0001051,53.2171,134.6468,105.979,254.1318,-3.3923e-05,-8.28e-06,0.0,0 STARLINK-3324,1 50814U 22001M   23210.05449465 -.00000828  00000-0 -33923-4 0  9992,2 50814  53.2171 134.6468 0001051 105.9790 254.1318 15.08845635 87564,6917.863,95.437,540.455,539.001,0.0
50814.0,STARLINK-3324,PAYLOAD,2023-07-29 04:29:14,15.088518,0.000114,53.2175,134.0516,107.8015,252.3101,1.1283e-05,-1.08e-06,0.0,0 STARLINK-3324,1 50814U 22001M   23210.18696912 -.00000108  00000-0  11283-4 0  9992,2 50814  53.2175 134.0516 0001140 107.8015 252.3101 15.08851800 87589,6917.844,95.437,540.498,538.921,0.0
50814.0,STARLINK-3324,PAYLOAD,2023-07-29 18:47:42,15.08835501,0.0001774,53.2185,131.374,132.0453,228.0691,0.00010817,1.434e-05,0.0,0 STARLINK-3324,1 50814U 22001M   23210.78313633  .00001434  00000-0  10817-3 0  9997,2 50814  53.2185 131.3740 0001774 132.0453 228.0691 15.08835501 87672,6917.894,95.438,540.986,538.532,0.0
50814.0,STARLINK-3324,PAYLOAD,2023-07-30 04:20:01,15.08844257,0.0001782,53.2177,129.5894,132.9003,227.2139,0.00017266,2.461e-05,0.0,0 STARLINK-3324,1 50814U 22001M   23211.18056904  .00002461  00000-0  17266-3 0  9993,2 50814  53.2177 129.5894 0001782 132.9003 227.2139 15.08844257 87734,6917.867,95.437,540.965,538.5,0.0
50814.0,STARLINK-3324,PAYLOAD,2023-07-31 01:00:02,15.08843505,0.0001462,53.2175,125.7195,121.8373,238.2761,-1.003e-05,-4.48e-06,0.0,0 STARLINK-3324,1 50814U 22001M   23212.04169559 -.00000448  00000-0 -10030-4 0  9998,2 50814  53.2175 125.7195 0001462 121.8373 238.2761 15.08843505 87868,6917.87,95.437,540.746,538.723,0.0
50814.0,STARLINK-3324,PAYLOAD,2023-08-01 18:20:04,15.08835376,0.0001165,53.2174,117.993,94.1615,265.9511,-4.0375e-06,-3.52e-06,0.0,0 STARLINK-3324,1 50814U 22001M   23213.76394374 -.00000352  00000-0 -40375-5 0  9993,2 50814  53.2174 117.9930 0001165  94.1615 265.9511 15.08835376 88125,6917.895,95.438,540.565,538.954,0.0
50814.0,STARLINK-3324,PAYLOAD,2023-08-02 22:57:00,15.08842178,0.0001188,53.2175,112.6405,97.3174,262.7954,7.8903e-05,9.68e-06,0.0,0 STARLINK-3324,1 50814U 22001M   23214.95625933  .00000968  00000-0  78903-4 0  9991,2 50814  53.2175 112.6405 0001188  97.3174 262.7954 15.08842178 88309,6917.874,95.437,540.561,538.917,0.0
50814.0,STARLINK-3324,PAYLOAD,2023-08-04 00:23:11,15.0883676,0.0001065,53.2175,107.8823,75.5908,284.5202,3.393e-05,2.52e-06,0.0,0 STARLINK-3324,1 50814U 22001M   23216.01610757  .00000252  00000-0  33930-4 0  9995,2 50814  53.2175 107.8823 0001065  75.5908 284.5202 15.08836760 88461,6917.89,95.438,540.492,539.019,0.0
50814.0,STARLINK-3324,PAYLOAD,2023-08-05 00:13:58,15.08848298,0.000138,53.2184,103.4195,74.851,285.2634,2.0346e-05,3.6e-07,0.0,0 STARLINK-3324,1 50814U 22001M   23217.00970246  .00000036  00000-0  20346-4 0  9994,2 50814  53.2184 103.4195 0001380  74.8510 285.2634 15.08848298 88619,6917.855,95.437,540.675,538.765,0.0
50814.0,STARLINK-3324,PAYLOAD,2023-08-06 09:37:03,15.08843642,0.0001172,53.2176,97.1787,91.2921,268.8205,8.9121e-05,1.131e-05,0.0,0 STARLINK-3324,1 50814U 22001M   23218.40073854  .00001131  00000-0  89121-4 0  9991,2 50814  53.2176  97.1787 0001172  91.2921 268.8205 15.08843642 88826,6917.869,95.437,540.545,538.923,0.0
50814.0,STARLINK-3324,PAYLOAD,2023-08-06 19:09:23,15.08831015,0.0001104,53.2172,95.3958,97.9676,262.1441,-0.00010358,-1.935e-05,0.0,0 STARLINK-3324,1 50814U 22001M   23218.79819332 -.00001935  00000-0 -10358-3 0  9991,2 50814  53.2172  95.3958 0001104  97.9676 262.1441 15.08831015 88883,6917.908,95.438,540.537,539.009,0.0
50814.0,STARLINK-3324,PAYLOAD,2023-08-07 01:30:56,15.08835376,0.0001119,53.2175,94.2046,106.6402,253.4713,-6.1219e-05,-1.262e-05,0.0,0 STARLINK-3324,1 50814U 22001M   23219.06314985 -.00001262  00000-0 -61219-4 0  9992,2 50814  53.2175  94.2046 0001119 106.6402 253.4713 15.08835376 88927,6917.895,95.438,540.534,538.985,0.0
50814.0,STARLINK-3324,PAYLOAD,2023-08-07 19:00:09,15.08851905,0.0001034,53.2175,90.9338,103.7599,256.3508,-1.2974e-05,-4.94e-06,0.0,0 STARLINK-3324,1 50814U 22001M   23219.79177761 -.00000494  00000-0 -12974-4 0  9991,2 50814  53.2175  90.9338 0001034 103.7599 256.3508 15.08851905 89038,6917.844,95.437,540.424,538.994,0.0
50814.0,STARLINK-3324,PAYLOAD,2023-08-07 23:46:18,15.08861508,0.0001035,53.2178,90.0419,102.2765,257.8343,4.3968e-05,4.12e-06,0.0,0 STARLINK-3324,1 50814U 22001M   23219.99048942  .00000412  00000-0  43968-4 0  9996,2 50814  53.2178  90.0419 0001035 102.2765 257.8343 15.08861508 89068,6917.815,95.436,540.396,538.964,0.0
50814.0,STARLINK-3324,PAYLOAD,2023-08-08 15:40:10,15.08831088,0.0001065,53.2176,87.0694,105.8358,254.2752,0.00024019,3.536e-05,0.0,0 STARLINK-3324,1 50814U 22001M   23220.65290502  .00003536  00000-0  24019-3 0  9997,2 50814  53.2176  87.0694 0001065 105.8358 254.2752 15.08831088 89163,6917.908,95.438,540.509,539.036,0.0
50814.0,STARLINK-3324,PAYLOAD,2023-08-08 23:37:07,15.08822886,0.0001204,53.2179,85.5806,97.5359,262.577,3.6093e-05,2.86e-06,0.0,0 STARLINK-3324,1 50814U 22001M   23220.98411674  .00000286  00000-0  36093-4 0  9993,2 50814  53.2179  85.5806 0001204  97.5359 262.5770 15.08822886 89211,6917.933,95.439,540.631,538.965,0.0
50814.0,STARLINK-3324,PAYLOAD,2023-08-09 07:34:02,15.08837191,7.72e-05,53.2164,84.0947,95.4125,264.6956,3.303e-05,2.38e-06,0.0,0 STARLINK-3324,1 50814U 22001M   23221.31530543  .00000238  00000-0  33030-4 0  9993,2 50814  53.2164  84.0947 0000772  95.4125 264.6956 15.08837191 89261,6917.889,95.438,540.288,539.22,0.0
